[{"OBJECT_NAME":"RAPTOR2","OBJECT_ID":"2024-028E","EPOCH":"2026-03-09T12:22:05.869344","MEAN_MOTION":13.70547942,"ECCENTRICITY":0.0011182,"INCLINATION":39.9903,"RA_OF_ASC_NODE":140.9437,"ARG_OF_PERICENTER":39.0348,"MEAN_ANOMALY":321.1204,"EPHEMERIS_TYPE":0,"CLASSIFICATION_TYPE":"U","NORAD_CAT_ID":58959,"ELEMENT_SET_NO":999,"REV_AT_EPOCH":10339,"BSTAR":7.2904e-5,"MEAN_MOTION_DOT":-1.3e-7,"MEAN_MOTION_DDOT":0},{"OBJECT_NAME":"OPS 7898 (P\/L 4)","OBJECT_ID":"1971-110E","EPOCH":"2026-03-09T19:42:33.316416","MEAN_MOTION":13.74645428,"ECCENTRICITY":0.0010661,"INCLINATION":69.9888,"RA_OF_ASC_NODE":211.2133,"ARG_OF_PERICENTER":288.7285,"MEAN_ANOMALY":71.2652,"EPHEMERIS_TYPE":0,"CLASSIFICATION_TYPE":"U","NORAD_CAT_ID":5682,"ELEMENT_SET_NO":999,"REV_AT_EPOCH":33152,"BSTAR":6.6621879e-5,"MEAN_MOTION_DOT":1.3e-7,"MEAN_MOTION_DDOT":0}]
